CCSDS_OMM_VERS = 2.0
CREATION_DATE  = 
ORIGINATOR     = 

OBJECT_NAME    = ATLAS CENTAUR 2
OBJECT_ID      = 1963-047A
CENTER_NAME    = EARTH
REF_FRAME      = TEME
TIME_SYSTEM    = UTC
MEAN_ELEMENT_THEORY = SGP/SGP4

EPOCH          = 2025-11-30T11:44:07.007136
MEAN_MOTION    = 14.11647629
ECCENTRICITY   = .0549478
INCLINATION    = 30.3590
RA_OF_ASC_NODE = 29.8796
ARG_OF_PERICENTER = 286.2697
MEAN_ANOMALY   = 67.8161

EPHEMERIS_TYPE = 0
CLASSIFICATION_TYPE = U
NORAD_CAT_ID   = 694
ELEMENT_SET_NO = 999
REV_AT_EPOCH   = 11759
BSTAR          = .45001E-3
MEAN_MOTION_DOT = .3775E-4
MEAN_MOTION_DDOT = 0

CCSDS_OMM_VERS = 2.0
CREATION_DATE  = 
ORIGINATOR     = 

OBJECT_NAME    = THOR AGENA D R/B
OBJECT_ID      = 1964-002A
CENTER_NAME    = EARTH
REF_FRAME      = TEME
TIME_SYSTEM    = UTC
MEAN_ELEMENT_THEORY = SGP/SGP4

EPOCH          = 2025-11-30T12:16:28.224192
MEAN_MOTION    = 14.33947953
ECCENTRICITY   = .0032788
INCLINATION    = 99.1220
RA_OF_ASC_NODE = 337.4689
ARG_OF_PERICENTER = 185.5962
MEAN_ANOMALY   = 174.4859

EPHEMERIS_TYPE = 0
CLASSIFICATION_TYPE = U
NORAD_CAT_ID   = 733
ELEMENT_SET_NO = 999
REV_AT_EPOCH   = 22408
BSTAR          = .11162E-3
MEAN_MOTION_DOT = .264E-5
MEAN_MOTION_DDOT = 0

CCSDS_OMM_VERS = 2.0
CREATION_DATE  = 
ORIGINATOR     = 

OBJECT_NAME    = SL-3 R/B
OBJECT_ID      = 1964-053B
CENTER_NAME    = EARTH
REF_FRAME      = TEME
TIME_SYSTEM    = UTC
MEAN_ELEMENT_THEORY = SGP/SGP4

EPOCH          = 2025-11-30T04:26:20.372064
MEAN_MOTION    = 14.61255001
ECCENTRICITY   = .0072763
INCLINATION    = 65.0769
RA_OF_ASC_NODE = 262.9332
ARG_OF_PERICENTER = 324.5501
MEAN_ANOMALY   = 35.0774

EPHEMERIS_TYPE = 0
CLASSIFICATION_TYPE = U
NORAD_CAT_ID   = 877
ELEMENT_SET_NO = 999
REV_AT_EPOCH   = 25225
BSTAR          = .11547E-3
MEAN_MOTION_DOT = .468E-5
MEAN_MOTION_DDOT = 0

CCSDS_OMM_VERS = 2.0
CREATION_DATE  = 
ORIGINATOR     = 

OBJECT_NAME    = SL-8 R/B
OBJECT_ID      = 1967-045B
CENTER_NAME    = EARTH
REF_FRAME      = TEME
TIME_SYSTEM    = UTC
MEAN_ELEMENT_THEORY = SGP/SGP4

EPOCH          = 2025-11-29T23:44:45.081024
MEAN_MOTION    = 14.45519587
ECCENTRICITY   = .0064897
INCLINATION    = 74.0092
RA_OF_ASC_NODE = 174.2708
ARG_OF_PERICENTER = 206.5000
MEAN_ANOMALY   = 153.2836

EPHEMERIS_TYPE = 0
CLASSIFICATION_TYPE = U
NORAD_CAT_ID   = 2802
ELEMENT_SET_NO = 999
REV_AT_EPOCH   = 7461
BSTAR          = .10686E-3
MEAN_MOTION_DOT = .358E-5
MEAN_MOTION_DDOT = 0

CCSDS_OMM_VERS = 2.0
CREATION_DATE  = 
ORIGINATOR     = 

OBJECT_NAME    = SL-8 R/B
OBJECT_ID      = 1968-040B
CENTER_NAME    = EARTH
REF_FRAME      = TEME
TIME_SYSTEM    = UTC
MEAN_ELEMENT_THEORY = SGP/SGP4

EPOCH          = 2025-11-29T22:08:17.365344
MEAN_MOTION    = 15.02389538
ECCENTRICITY   = .0024559
INCLINATION    = 74.0296
RA_OF_ASC_NODE = 157.4160
ARG_OF_PERICENTER = 2.0336
MEAN_ANOMALY   = 358.0947

EPHEMERIS_TYPE = 0
CLASSIFICATION_TYPE = U
NORAD_CAT_ID   = 3230
ELEMENT_SET_NO = 999
REV_AT_EPOCH   = 7502
BSTAR          = .317E-3
MEAN_MOTION_DOT = .4184E-4
MEAN_MOTION_DDOT = 0

CCSDS_OMM_VERS = 2.0
CREATION_DATE  = 
ORIGINATOR     = 

OBJECT_NAME    = OAO 2
OBJECT_ID      = 1968-110A
CENTER_NAME    = EARTH
REF_FRAME      = TEME
TIME_SYSTEM    = UTC
MEAN_ELEMENT_THEORY = SGP/SGP4

EPOCH          = 2025-11-30T10:31:28.090848
MEAN_MOTION    = 14.47230744
ECCENTRICITY   = .0004946
INCLINATION    = 34.9927
RA_OF_ASC_NODE = 99.3313
ARG_OF_PERICENTER = 124.5639
MEAN_ANOMALY   = 235.5519

EPHEMERIS_TYPE = 0
CLASSIFICATION_TYPE = U
NORAD_CAT_ID   = 3597
ELEMENT_SET_NO = 999
REV_AT_EPOCH   = 471
BSTAR          = .84238E-4
MEAN_MOTION_DOT = .293E-5
MEAN_MOTION_DDOT = 0

CCSDS_OMM_VERS = 2.0
CREATION_DATE  = 
ORIGINATOR     = 

OBJECT_NAME    = ISIS 1
OBJECT_ID      = 1969-009A
CENTER_NAME    = EARTH
REF_FRAME      = TEME
TIME_SYSTEM    = UTC
MEAN_ELEMENT_THEORY = SGP/SGP4

EPOCH          = 2025-11-30T11:47:52.245024
MEAN_MOTION    = 11.30346417
ECCENTRICITY   = .1706933
INCLINATION    = 88.4489
RA_OF_ASC_NODE = 166.1361
ARG_OF_PERICENTER = 289.4548
MEAN_ANOMALY   = 53.0302

EPHEMERIS_TYPE = 0
CLASSIFICATION_TYPE = U
NORAD_CAT_ID   = 3669
ELEMENT_SET_NO = 999
REV_AT_EPOCH   = 33732
BSTAR          = .1491E-3
MEAN_MOTION_DOT = .204E-5
MEAN_MOTION_DDOT = 0

CCSDS_OMM_VERS = 2.0
CREATION_DATE  = 
ORIGINATOR     = 

OBJECT_NAME    = SERT 2
OBJECT_ID      = 1970-009A
CENTER_NAME    = EARTH
REF_FRAME      = TEME
TIME_SYSTEM    = UTC
MEAN_ELEMENT_THEORY = SGP/SGP4

EPOCH          = 2025-11-30T10:41:13.672896
MEAN_MOTION    = 13.58715163
ECCENTRICITY   = .0005651
INCLINATION    = 99.2632
RA_OF_ASC_NODE = 278.0331
ARG_OF_PERICENTER = 61.9237
MEAN_ANOMALY   = 45.1630

EPHEMERIS_TYPE = 0
CLASSIFICATION_TYPE = U
NORAD_CAT_ID   = 4327
ELEMENT_SET_NO = 999
REV_AT_EPOCH   = 76641
BSTAR          = .93778E-4
MEAN_MOTION_DOT = .27E-6
MEAN_MOTION_DDOT = 0

CCSDS_OMM_VERS = 2.0
CREATION_DATE  = 
ORIGINATOR     = 

OBJECT_NAME    = SL-3 R/B
OBJECT_ID      = 1971-028B
CENTER_NAME    = EARTH
REF_FRAME      = TEME
TIME_SYSTEM    = UTC
MEAN_ELEMENT_THEORY = SGP/SGP4

EPOCH          = 2025-11-30T12:07:48.930816
MEAN_MOTION    = 15.53520868
ECCENTRICITY   = .0019703
INCLINATION    = 81.2384
RA_OF_ASC_NODE = 173.7927
ARG_OF_PERICENTER = 285.0269
MEAN_ANOMALY   = 74.8799

EPHEMERIS_TYPE = 0
CLASSIFICATION_TYPE = U
NORAD_CAT_ID   = 5118
ELEMENT_SET_NO = 999
REV_AT_EPOCH   = 97323
BSTAR          = .47589E-3
MEAN_MOTION_DOT = .30584E-3
MEAN_MOTION_DDOT = 0

CCSDS_OMM_VERS = 2.0
CREATION_DATE  = 
ORIGINATOR     = 

OBJECT_NAME    = ASTEX 1
OBJECT_ID      = 1971-089A
CENTER_NAME    = EARTH
REF_FRAME      = TEME
TIME_SYSTEM    = UTC
MEAN_ELEMENT_THEORY = SGP/SGP4

EPOCH          = 2025-11-30T03:36:51.888384
MEAN_MOTION    = 14.50617428
ECCENTRICITY   = .0017629
INCLINATION    = 92.7131
RA_OF_ASC_NODE = 119.5466
ARG_OF_PERICENTER = 64.7584
MEAN_ANOMALY   = 295.5447

EPHEMERIS_TYPE = 0
CLASSIFICATION_TYPE = U
NORAD_CAT_ID   = 5560
ELEMENT_SET_NO = 999
REV_AT_EPOCH   = 84787
BSTAR          = .17688E-3
MEAN_MOTION_DOT = .694E-5
MEAN_MOTION_DDOT = 0

CCSDS_OMM_VERS = 2.0
CREATION_DATE  = 
ORIGINATOR     = 

OBJECT_NAME    = SL-8 R/B
OBJECT_ID      = 1971-119B
CENTER_NAME    = EARTH
REF_FRAME      = TEME
TIME_SYSTEM    = UTC
MEAN_ELEMENT_THEORY = SGP/SGP4

EPOCH          = 2025-11-30T11:48:09.609696
MEAN_MOTION    = 14.35339995
ECCENTRICITY   = .0560428
INCLINATION    = 73.8892
RA_OF_ASC_NODE = 0.8113
ARG_OF_PERICENTER = 347.5489
MEAN_ANOMALY   = 11.2268

EPHEMERIS_TYPE = 0
CLASSIFICATION_TYPE = U
NORAD_CAT_ID   = 5730
ELEMENT_SET_NO = 999
REV_AT_EPOCH   = 64124
BSTAR          = .5832E-3
MEAN_MOTION_DOT = .11104E-3
MEAN_MOTION_DDOT = 0

CCSDS_OMM_VERS = 2.0
CREATION_DATE  = 
ORIGINATOR     = 

OBJECT_NAME    = OAO 3 (COPERNICUS)
OBJECT_ID      = 1972-065A
CENTER_NAME    = EARTH
REF_FRAME      = TEME
TIME_SYSTEM    = UTC
MEAN_ELEMENT_THEORY = SGP/SGP4

EPOCH          = 2025-11-30T11:58:03.074880
MEAN_MOTION    = 14.59888209
ECCENTRICITY   = .0005984
INCLINATION    = 35.0038
RA_OF_ASC_NODE = 142.3975
ARG_OF_PERICENTER = 65.9313
MEAN_ANOMALY   = 330.2672

EPHEMERIS_TYPE = 0
CLASSIFICATION_TYPE = U
NORAD_CAT_ID   = 6153
ELEMENT_SET_NO = 999
REV_AT_EPOCH   = 83169
BSTAR          = .87471E-4
MEAN_MOTION_DOT = .404E-5
MEAN_MOTION_DDOT = 0

