ATLAS CENTAUR 2         
1 00694U 63047A   25334.48896999  .00003775  00000+0  45001-3 0  9992
2 00694  30.3590  29.8796 0549478 286.2697  67.8161 14.11647629117592
THOR AGENA D R/B        
1 00733U 64002A   25334.51143778  .00000264  00000+0  11162-3 0  9993
2 00733  99.1220 337.4689 0032788 185.5962 174.4859 14.33947953224084
SL-3 R/B                
1 00877U 64053B   25334.18495801  .00000468  00000+0  11547-3 0  9991
2 00877  65.0769 262.9332 0072763 324.5501  35.0774 14.61255001252256
SL-8 R/B                
1 02802U 67045B   25333.98941066  .00000358  00000+0  10686-3 0  9992
2 02802  74.0092 174.2708 0064897 206.5000 153.2836 14.45519587 74617
SL-8 R/B                
1 03230U 68040B   25333.92242321  .00004184  00000+0  31700-3 0  9997
2 03230  74.0296 157.4160 0024559   2.0336 358.0947 15.02389538 75025
OAO 2                   
1 03597U 68110A   25334.43851957  .00000293  00000+0  84238-4 0  9991
2 03597  34.9927  99.3313 0004946 124.5639 235.5519 14.47230744  4719
ISIS 1                  
1 03669U 69009A   25334.49157691  .00000204  00000+0  14910-3 0  9990
2 03669  88.4489 166.1361 1706933 289.4548  53.0302 11.30346417337321
SERT 2                  
1 04327U 70009A   25334.44529714  .00000027  00000+0  93778-4 0  9991
2 04327  99.2632 278.0331 0005651  61.9237  45.1630 13.58715163766411
SL-3 R/B                
1 05118U 71028B   25334.50542744  .00030584  00000+0  47589-3 0  9996
2 05118  81.2384 173.7927 0019703 285.0269  74.8799 15.53520868973232
ASTEX 1                 
1 05560U 71089A   25334.15060056  .00000694  00000+0  17688-3 0  9992
2 05560  92.7131 119.5466 0017629  64.7584 295.5447 14.50617428847870
SL-8 R/B                
1 05730U 71119B   25334.49177789  .00011104  00000+0  58320-3 0  9990
2 05730  73.8892   0.8113 0560428 347.5489  11.2268 14.35339995641240
OAO 3 (COPERNICUS)      
1 06153U 72065A   25334.49864670  .00000404  00000+0  87471-4 0  9994
2 06153  35.0038 142.3975 0005984  65.9313 330.2672 14.59888209831694
